{"type": "FeatureCollection", "features": [{"type": "Feature", "properties": {"kind": "water_body", "area_ha": 5.56, "detector": "MNDWI consensus, Sentinel-2 2025-08-30"}, "geometry": {"type": "Point", "coordinates": [46.674848, 41.338346]}}, {"type": "Feature", "properties": {"kind": "water_body", "area_ha": 5.32, "detector": "MNDWI consensus, Sentinel-2 2025-08-30"}, "geometry": {"type": "Point", "coordinates": [46.649672, 41.350036]}}, {"type": "Feature", "properties": {"kind": "water_body", "area_ha": 3.8, "detector": "MNDWI consensus, Sentinel-2 2025-08-30"}, "geometry": {"type": "Point", "coordinates": [46.662842, 41.181402]}}, {"type": "Feature", "properties": {"kind": "water_body", "area_ha": 3.4, "detector": "MNDWI consensus, Sentinel-2 2025-08-30"}, "geometry": {"type": "Point", "coordinates": [46.673829, 41.222953]}}, {"type": "Feature", "properties": {"kind": "water_body", "area_ha": 3.04, "detector": "MNDWI consensus, Sentinel-2 2025-08-30"}, "geometry": {"type": "Point", "coordinates": [46.7134, 41.294157]}}, {"type": "Feature", "properties": {"kind": "water_body", "area_ha": 2.92, "detector": "MNDWI consensus, Sentinel-2 2025-08-30"}, "geometry": {"type": "Point", "coordinates": [46.695428, 41.311816]}}, {"type": "Feature", "properties": {"kind": "water_body", "area_ha": 2.92, "detector": "MNDWI consensus, Sentinel-2 2025-08-30"}, "geometry": {"type": "Point", "coordinates": [46.70374, 41.304029]}}, {"type": "Feature", "properties": {"kind": "water_body", "area_ha": 2.56, "detector": "MNDWI consensus, Sentinel-2 2025-08-30"}, "geometry": {"type": "Point", "coordinates": [46.688424, 41.332836]}}, {"type": "Feature", "properties": {"kind": "water_body", "area_ha": 2.56, "detector": "MNDWI consensus, Sentinel-2 2025-08-30"}, "geometry": {"type": "Point", "coordinates": [46.732476, 41.28299]}}, {"type": "Feature", "properties": {"kind": "water_body", "area_ha": 2.28, "detector": "MNDWI consensus, Sentinel-2 2025-08-30"}, "geometry": {"type": "Point", "coordinates": [46.731557, 41.289112]}}, {"type": "Feature", "properties": {"kind": "water_body", "area_ha": 2.28, "detector": "MNDWI consensus, Sentinel-2 2025-08-30"}, "geometry": {"type": "Point", "coordinates": [46.653733, 41.138214]}}, {"type": "Feature", "properties": {"kind": "water_body", "area_ha": 2.24, "detector": "MNDWI consensus, Sentinel-2 2025-08-30"}, "geometry": {"type": "Point", "coordinates": [46.656513, 41.148441]}}, {"type": "Feature", "properties": {"kind": "water_body", "area_ha": 2.16, "detector": "MNDWI consensus, Sentinel-2 2025-08-30"}, "geometry": {"type": "Point", "coordinates": [46.714597, 41.268553]}}, {"type": "Feature", "properties": {"kind": "water_body", "area_ha": 2.16, "detector": "MNDWI consensus, Sentinel-2 2025-08-30"}, "geometry": {"type": "Point", "coordinates": [46.703589, 41.257352]}}, {"type": "Feature", "properties": {"kind": "water_body", "area_ha": 2.0, "detector": "MNDWI consensus, Sentinel-2 2025-08-30"}, "geometry": {"type": "Point", "coordinates": [46.690836, 41.321243]}}]}