{"type": "FeatureCollection", "features": [{"type": "Feature", "geometry": {"type": "LineString", "coordinates": [[46.603821516036994, 41.213085510586204], [46.604315042495735, 41.21323078702096], [46.60500168800354, 41.21324692882713], [46.6055166721344, 41.21318236157855], [46.60616040229798, 41.21300480131638], [46.60665392875672, 41.21297251758057], [46.60691142082215, 41.21282724057225], [46.60744786262512, 41.21269810518292], [46.60757660865785, 41.21256896953867], [46.60791993141175, 41.21245597564086], [46.60843491554261, 41.2121169927764], [46.60849928855897, 41.21200399809792], [46.60871386528016, 41.21197171386822], [46.609808206558235, 41.21151973297962], [46.61002278327943, 41.21150359074727]]}, "properties": {"id": "det3117", "length_m": 580.3, "osm_match_frac": 0.0, "status": "unmapped_candidate", "centroid": [46.60698, 41.21261]}}, {"type": "Feature", "geometry": {"type": "LineString", "coordinates": [[46.53756022453309, 41.135736551363024], [46.537667512893684, 41.13563958580131], [46.537796258926406, 41.13534868825616], [46.537860631942756, 41.135316366227066], [46.537860631942756, 41.135187077951436], [46.53792500495911, 41.1350901115775], [46.538161039352424, 41.134880017275556], [46.538161039352424, 41.134815372739595], [46.53828978538514, 41.13466992230076], [46.53878331184388, 41.13424973033252], [46.538804769516, 41.134185085175446], [46.539319753646865, 41.133813374285985], [46.539341211318984, 41.1337487286989], [46.539620161056526, 41.13353863010094], [46.53966307640077, 41.133457822768705], [46.53989911079407, 41.13332853083009], [46.53992056846619, 41.13319923863668], [46.54002785682679, 41.1331669155485], [46.54028534889222, 41.13297297668504], [46.540349721908576, 41.13282752216119]]}, "properties": {"id": "det8019", "length_m": 414.1, "osm_match_frac": 0.0, "status": "unmapped_candidate", "centroid": [46.53889, 41.13422]}}, {"type": "Feature", "geometry": {"type": "LineString", "coordinates": [[46.5352213382721, 41.13837072761649], [46.5352213382721, 41.138241445360954], [46.535414457321174, 41.138063681843526], [46.535392999649055, 41.13791823860729], [46.53552174568178, 41.13774047421392], [46.53595089912415, 41.13736878347099], [46.53599381446839, 41.13723949924059], [46.536165475845344, 41.137191017588506], [46.536937952041626, 41.136528431418576], [46.53710961341858, 41.13630218094961], [46.53719544410706, 41.13625369860473], [46.53719544410706, 41.136189055422484], [46.537388563156135, 41.136027447188155], [46.53753876686097, 41.13576887318507]]}, "properties": {"id": "det7760", "length_m": 362.4, "osm_match_frac": 0.0, "status": "unmapped_candidate", "centroid": [46.53632, 41.13706]}}, {"type": "Feature", "geometry": {"type": "LineString", "coordinates": [[46.61135315895081, 41.24085972540755], [46.61165356636048, 41.24084359041668], [46.61191105842591, 41.24092426533119], [46.612275838851936, 41.24090813035625], [46.61291956901551, 41.24103721004417], [46.61321997642517, 41.24103721004417], [46.613520383834846, 41.24094040030213], [46.61367058753969, 41.24079518542019], [46.613885164260864, 41.24069837531964], [46.613992452621474, 41.24060156507567]]}, "properties": {"id": "det2309", "length_m": 243.0, "osm_match_frac": 0.0, "status": "unmapped_candidate", "centroid": [46.61272, 41.24091]}}, {"type": "Feature", "geometry": {"type": "LineString", "coordinates": [[46.51286244392396, 41.13004766261898], [46.5127980709076, 41.130015337978044], [46.5127980709076, 41.12993452630603], [46.51316285133363, 41.12953046645294], [46.5138065814972, 41.12951430400705], [46.51391386985779, 41.12948197910335], [46.51412844657899, 41.12951430400705], [46.51423573493958, 41.129433491717926], [46.51447176933289, 41.12909407901664], [46.51453614234925, 41.12888396551216]]}, "properties": {"id": "det8616", "length_m": 231.2, "osm_match_frac": 0.0, "status": "unmapped_candidate", "centroid": [46.51367, 41.1295]}}, {"type": "Feature", "geometry": {"type": "LineString", "coordinates": [[46.539620161056526, 41.13651227069668], [46.539856195449836, 41.13647994924092], [46.54045701026917, 41.13622137702157], [46.54075741767885, 41.13617289461697], [46.54101490974427, 41.13605976886687], [46.54144406318666, 41.13594664292169], [46.541787385940566, 41.13591432118723], [46.54198050498964, 41.135785034090134]]}, "properties": {"id": "det7940", "length_m": 217.8, "osm_match_frac": 0.0, "status": "unmapped_candidate", "centroid": [46.54081, 41.13615]}}, {"type": "Feature", "geometry": {"type": "LineString", "coordinates": [[46.5787160396576, 41.13693244817216], [46.57863020896912, 41.13677084176934], [46.57850146293641, 41.136706199096736], [46.578329801559455, 41.13646378850707], [46.57805085182191, 41.13620521622401], [46.5779221057892, 41.13591432118723], [46.57777190208436, 41.13576887318507], [46.577557325363166, 41.13568806860008], [46.57753586769105, 41.13560726391556], [46.57740712165834, 41.13551029816273], [46.577364206314094, 41.13538101026932]]}, "properties": {"id": "det7901", "length_m": 213.8, "osm_match_frac": 0.0, "status": "unmapped_candidate", "centroid": [46.57804, 41.13615]}}, {"type": "Feature", "geometry": {"type": "LineString", "coordinates": [[46.61648154258729, 41.25012055278126], [46.61641716957093, 41.25005602194016], [46.61615967750549, 41.24999149103534], [46.61573052406312, 41.24973336677861], [46.61566615104676, 41.24973336677861], [46.61540865898133, 41.249459108638426], [46.614786386489875, 41.24907191871586], [46.614743471145644, 41.24899125385984]]}, "properties": {"id": "det1834", "length_m": 197.7, "osm_match_frac": 0.0, "status": "unmapped_candidate", "centroid": [46.61559, 41.2496]}}, {"type": "Feature", "geometry": {"type": "LineString", "coordinates": [[46.72301888465882, 41.28384532403318], [46.72226786613465, 41.28332934209413], [46.722160577774055, 41.283200345971885], [46.721924543380744, 41.28307134959465], [46.721838712692275, 41.282893979159596], [46.721731424331665, 41.2828133560752], [46.72166705131532, 41.28258761090899]]}, "properties": {"id": "det303", "length_m": 185.7, "osm_match_frac": 0.0, "status": "unmapped_candidate", "centroid": [46.72227, 41.28327]}}, {"type": "Feature", "geometry": {"type": "LineString", "coordinates": [[46.62585854530335, 41.133603275895055], [46.626094579696655, 41.133603275895055], [46.626287698745735, 41.13366792162547], [46.62648081779481, 41.13366792162547], [46.626523733139045, 41.13361943733363], [46.62701725959778, 41.133587114452496], [46.627253293991096, 41.133522468642454], [46.62783265113831, 41.13349014571354], [46.62798285484315, 41.133522468642454]]}, "properties": {"id": "det8294", "length_m": 184.8, "osm_match_frac": 0.0, "status": "unmapped_candidate", "centroid": [46.62692, 41.13358]}}, {"type": "Feature", "geometry": {"type": "LineString", "coordinates": [[46.60658955574036, 41.20720961550595], [46.60661101341248, 41.207161185606665], [46.60676121711732, 41.207161185606665], [46.60714745521546, 41.20699975235014], [46.60796284675598, 41.20675760171858], [46.608284711837776, 41.206612310909485], [46.60845637321473, 41.20659616746634]]}, "properties": {"id": "det3528", "length_m": 174.7, "osm_match_frac": 0.0, "status": "unmapped_candidate", "centroid": [46.60751, 41.20689]}}, {"type": "Feature", "geometry": {"type": "LineString", "coordinates": [[46.47368073463441, 41.13392650391009], [46.47327303886414, 41.13392650391009], [46.47316575050355, 41.133845697055634], [46.472865343093886, 41.133845697055634], [46.47265076637269, 41.1337487286989], [46.47241473197938, 41.13370024446679], [46.47217869758607, 41.13370024446679], [46.47194266319276, 41.133845697055634], [46.47179245948792, 41.133861858434486]]}, "properties": {"id": "det8260", "length_m": 171.8, "osm_match_frac": 0.0, "status": "unmapped_candidate", "centroid": [46.47273, 41.13382]}}, {"type": "Feature", "geometry": {"type": "LineString", "coordinates": [[46.60045266151428, 41.18880367259643], [46.60075306892396, 41.18862604618085], [46.600795984268196, 41.188464567203084], [46.601032018661506, 41.18830308782705], [46.60116076469422, 41.18827079190405], [46.60161137580872, 41.18788323958556], [46.60182595252992, 41.18785094345548]]}, "properties": {"id": "det4835", "length_m": 164.0, "osm_match_frac": 0.0, "status": "unmapped_candidate", "centroid": [46.60111, 41.18829]}}, {"type": "Feature", "geometry": {"type": "LineString", "coordinates": [[46.67830109596253, 41.24991082731466], [46.67860150337221, 41.24989469455857], [46.67883753776551, 41.24973336677861], [46.67898774147034, 41.24973336677861], [46.679202318191535, 41.24962043709561], [46.67941689491273, 41.24960430426782], [46.67965292930604, 41.2495236400691], [46.67993187904359, 41.24931391268636]]}, "properties": {"id": "det1844", "length_m": 159.2, "osm_match_frac": 0.0, "status": "unmapped_candidate", "centroid": [46.67913, 41.24967]}}, {"type": "Feature", "geometry": {"type": "LineString", "coordinates": [[46.54142260551453, 41.11724585928689], [46.54176592826844, 41.11716503188875], [46.541808843612685, 41.117116535402104], [46.542109251022346, 41.117068038879616], [46.54234528541565, 41.116954880187805], [46.54262423515321, 41.11690638354589], [46.543117761611946, 41.11669623101685]]}, "properties": {"id": "det9286", "length_m": 157.5, "osm_match_frac": 0.0, "status": "unmapped_candidate", "centroid": [46.54227, 41.11699]}}, {"type": "Feature", "geometry": {"type": "LineString", "coordinates": [[46.60019516944886, 41.18667212380526], [46.60045266151428, 41.186655975443514], [46.60060286521913, 41.186510640008656], [46.600838899612434, 41.186446046378514], [46.60098910331727, 41.18631685892706], [46.6012465953827, 41.18625226510575], [46.60143971443177, 41.18612307727197], [46.6018044948578, 41.18610692877483]]}, "properties": {"id": "det4972", "length_m": 157.3, "osm_match_frac": 0.0, "status": "unmapped_candidate", "centroid": [46.60099, 41.18636]}}, {"type": "Feature", "geometry": {"type": "LineString", "coordinates": [[46.53743147850037, 41.13711021475539], [46.53758168220521, 41.13709405417683], [46.53771042823792, 41.13704557241723], [46.53777480125428, 41.13696476940495], [46.53805375099183, 41.13688396629312], [46.53846144676209, 41.136819323732], [46.53859019279481, 41.13672235977086], [46.53876185417176, 41.13672235977086], [46.53906226158142, 41.136641556360416]]}, "properties": {"id": "det7875", "length_m": 151.8, "osm_match_frac": 0.0, "status": "unmapped_candidate", "centroid": [46.53824, 41.13686]}}, {"type": "Feature", "geometry": {"type": "LineString", "coordinates": [[46.455441713333144, 41.15084526647894], [46.45535588264466, 41.15065137988647], [46.45511984825135, 41.15052212183962], [46.45492672920227, 41.150489807288096], [46.45479798316956, 41.15031207696997], [46.45460486412049, 41.15019897560759], [46.454476118087776, 41.150037401894295], [46.45443320274354, 41.149891985211895], [46.454476118087776, 41.14984351291275]]}, "properties": {"id": "det6895", "length_m": 150.7, "osm_match_frac": 0.0, "status": "unmapped_candidate", "centroid": [46.4549, 41.15037]}}, {"type": "Feature", "geometry": {"type": "LineString", "coordinates": [[46.575862169265754, 41.15884258876433], [46.57590508460999, 41.158745657365984], [46.57616257667543, 41.15853563884442], [46.57626986503602, 41.15851948354566], [46.576591730117805, 41.15830946429939], [46.57721400260926, 41.15814791057511]]}, "properties": {"id": "det6583", "length_m": 143.2, "osm_match_frac": 0.0, "status": "unmapped_candidate", "centroid": [46.57649, 41.15842]}}, {"type": "Feature", "geometry": {"type": "LineString", "coordinates": [[46.61266207695008, 41.24710366779803], [46.61270499229432, 41.24679713158134], [46.61289811134339, 41.24652286111586], [46.61296248435975, 41.24632925774119], [46.613026857376106, 41.24594204927095]]}, "properties": {"id": "det1954", "length_m": 134.2, "osm_match_frac": 0.0, "status": "unmapped_candidate", "centroid": [46.61285, 41.24653]}}, {"type": "Feature", "geometry": {"type": "LineString", "coordinates": [[46.54292464256287, 41.21976789266924], [46.542795896530166, 41.21976789266924], [46.54247403144838, 41.21965491120643], [46.54234528541565, 41.21965491120643], [46.542195081710815, 41.21955806979725], [46.54193758964539, 41.219283685025886], [46.541916131973274, 41.21918684306704], [46.54185175895691, 41.21915456238222], [46.54185175895691, 41.219057720232186]]}, "properties": {"id": "det2811", "length_m": 133.4, "osm_match_frac": 0.0, "status": "unmapped_candidate", "centroid": [46.5423, 41.21952]}}, {"type": "Feature", "geometry": {"type": "LineString", "coordinates": [[46.395317316055305, 41.20675760171858], [46.39512419700623, 41.2065638805681], [46.39488816261292, 41.20641858932887], [46.394845247268684, 41.20633787183433], [46.39460921287537, 41.20622486717471], [46.39456629753113, 41.20614414944121], [46.39445900917054, 41.20612800588256], [46.394373178482056, 41.20622486717471], [46.3942015171051, 41.20624101070946]]}, "properties": {"id": "det3583", "length_m": 131.8, "osm_match_frac": 0.0, "status": "unmapped_candidate", "centroid": [46.39478, 41.20637]}}, {"type": "Feature", "geometry": {"type": "LineString", "coordinates": [[46.66860222816468, 41.18785094345548], [46.66853785514832, 41.18768946256609], [46.66858077049256, 41.18733420320762], [46.668473482131965, 41.18725346217551], [46.668452024459846, 41.18707583155441], [46.66836619377137, 41.186962793635544], [46.668215990066535, 41.1868336072036], [46.66813015937806, 41.18681745888169]]}, "properties": {"id": "det4862", "length_m": 131.8, "osm_match_frac": 0.0, "status": "unmapped_candidate", "centroid": [46.66846, 41.18728]}}, {"type": "Feature", "geometry": {"type": "LineString", "coordinates": [[46.622511148452766, 41.24089199537733], [46.62236094474793, 41.240972670232075], [46.622060537338264, 41.24098880519108], [46.62167429924012, 41.24092426533119], [46.62154555320741, 41.24084359041668], [46.621030569076545, 41.240827455421844]]}, "properties": {"id": "det2300", "length_m": 131.1, "osm_match_frac": 0.0, "status": "unmapped_candidate", "centroid": [46.62178, 41.24091]}}, {"type": "Feature", "geometry": {"type": "LineString", "coordinates": [[46.640514135360725, 41.23148462454707], [46.640578508377075, 41.23143621261946], [46.640793085098274, 41.23143621261946], [46.64111495018006, 41.23130711397058], [46.64120078086854, 41.23119415244368], [46.641436815261855, 41.23111346551925], [46.64156556129456, 41.231000503657754], [46.641737222671516, 41.231000503657754], [46.64178013801576, 41.23096822880433]]}, "properties": {"id": "det2482", "length_m": 128.4, "osm_match_frac": 0.0, "status": "unmapped_candidate", "centroid": [46.64115, 41.23124]}}, {"type": "Feature", "geometry": {"type": "LineString", "coordinates": [[46.69126152992249, 41.32855900088238], [46.69151902198793, 41.328510660909345], [46.69179797172547, 41.32852677423767], [46.692184209823616, 41.328478434240715], [46.692420244216926, 41.32826896050613], [46.692613363266, 41.32823673371795]]}, "properties": {"id": "det79", "length_m": 125.5, "osm_match_frac": 0.0, "status": "unmapped_candidate", "centroid": [46.69196, 41.32845]}}, {"type": "Feature", "geometry": {"type": "LineString", "coordinates": [[46.61304831504822, 41.24592591553489], [46.61315560340883, 41.245861380550835], [46.61315560340883, 41.24565164141248], [46.6132414340973, 41.24547416930803], [46.6132414340973, 41.24536123226333], [46.613391637802124, 41.24516762544686], [46.61345601081849, 41.24490948213257]]}, "properties": {"id": "det1983", "length_m": 122.4, "osm_match_frac": 0.0, "status": "unmapped_candidate", "centroid": [46.61326, 41.24544]}}, {"type": "Feature", "geometry": {"type": "LineString", "coordinates": [[46.59543156623841, 41.24019818751559], [46.59590363502504, 41.24000456540241], [46.596118211746216, 41.239956159784484], [46.596225500106826, 41.23987548367495], [46.59656882286073, 41.23982707796143], [46.59667611122132, 41.23971413115712]]}, "properties": {"id": "det2347", "length_m": 121.2, "osm_match_frac": 0.0, "status": "unmapped_candidate", "centroid": [46.59607, 41.23996]}}, {"type": "Feature", "geometry": {"type": "LineString", "coordinates": [[46.51453614234925, 41.12886780290702], [46.5148150920868, 41.128415248346705], [46.51457905769349, 41.12805966757383], [46.5143644809723, 41.12796269066498]]}, "properties": {"id": "det8647", "length_m": 120.6, "osm_match_frac": 0.0, "status": "unmapped_candidate", "centroid": [46.51464, 41.12837]}}, {"type": "Feature", "geometry": {"type": "LineString", "coordinates": [[46.66853785514832, 41.188868263900794], [46.6685163974762, 41.18843227135973], [46.66868805885316, 41.18827079190405], [46.668709516525276, 41.18810931205012], [46.66868805885316, 41.187931683750826], [46.66860222816468, 41.18786709152251]]}, "properties": {"id": "det4833", "length_m": 119.4, "osm_match_frac": 0.0, "status": "unmapped_candidate", "centroid": [46.66861, 41.18835]}}, {"type": "Feature", "geometry": {"type": "LineString", "coordinates": [[46.67102694511414, 41.275863271852344], [46.67068362236024, 41.27591165086649], [46.67044758796692, 41.27587939819437], [46.67031884193421, 41.275798766444375], [46.67016863822938, 41.27562137624378], [46.66982531547547, 41.27554074417506]]}, "properties": {"id": "det540", "length_m": 116.9, "osm_match_frac": 0.0, "status": "unmapped_candidate", "centroid": [46.67041, 41.27577]}}, {"type": "Feature", "geometry": {"type": "LineString", "coordinates": [[46.61321997642517, 41.211455164026326], [46.61334872245789, 41.21135831047692], [46.613498926162734, 41.211342168204744], [46.61364912986757, 41.21124531448805], [46.614035367965705, 41.21122917218799], [46.61420702934266, 41.211164602947946], [46.61446452140809, 41.211132318304024]]}, "properties": {"id": "det3228", "length_m": 114.9, "osm_match_frac": 0.0, "status": "unmapped_candidate", "centroid": [46.61383, 41.21126]}}, {"type": "Feature", "geometry": {"type": "LineString", "coordinates": [[46.60060286521913, 41.25276626238723], [46.60071015357972, 41.25270173415942], [46.60122513771058, 41.25279852647723], [46.60128951072694, 41.25284692258235], [46.601482629776015, 41.25284692258235], [46.60176157951356, 41.25283079055129], [46.60184741020203, 41.25275013033625]]}, "properties": {"id": "det1601", "length_m": 114.7, "osm_match_frac": 0.0, "status": "unmapped_candidate", "centroid": [46.60123, 41.25279]}}, {"type": "Feature", "geometry": {"type": "LineString", "coordinates": [[46.54200196266175, 41.13576887318507], [46.542195081710815, 41.13576887318507], [46.5427315235138, 41.13563958580131], [46.54333233833314, 41.13560726391556]]}, "properties": {"id": "det8016", "length_m": 114.0, "osm_match_frac": 0.0, "status": "unmapped_candidate", "centroid": [46.54267, 41.13568]}}, {"type": "Feature", "geometry": {"type": "LineString", "coordinates": [[46.60019516944886, 41.23476041502775], [46.60051703453065, 41.23464745946789], [46.60086035728455, 41.23463132294341], [46.60096764564515, 41.234534503712844], [46.60141825675965, 41.23446995747947]]}, "properties": {"id": "det2393", "length_m": 111.0, "osm_match_frac": 0.0, "status": "unmapped_candidate", "centroid": [46.6008, 41.2346]}}, {"type": "Feature", "geometry": {"type": "LineString", "coordinates": [[46.612769365310676, 41.2537019145277], [46.61285519599915, 41.25349220055801], [46.61311268806458, 41.253314749750096], [46.61321997642517, 41.25316956236692], [46.61332726478578, 41.25284692258235]]}, "properties": {"id": "det1555", "length_m": 109.0, "osm_match_frac": 0.0, "status": "unmapped_candidate", "centroid": [46.61307, 41.25329]}}, {"type": "Feature", "geometry": {"type": "LineString", "coordinates": [[46.524578332901, 41.105524847489704], [46.52477145195008, 41.105508679131766], [46.52492165565491, 41.10537933212496], [46.52500748634339, 41.10537933212496], [46.52511477470399, 41.105314658526005], [46.52573704719544, 41.105314658526005]]}, "properties": {"id": "det9673", "length_m": 106.4, "osm_match_frac": 0.0, "status": "unmapped_candidate", "centroid": [46.52514, 41.10538]}}, {"type": "Feature", "geometry": {"type": "LineString", "coordinates": [[46.612275838851936, 41.21132602592859], [46.61221146583558, 41.21118074526394], [46.61199688911439, 41.21110003364416], [46.6116750240326, 41.211083891308256], [46.611202955245986, 41.21118074526394]]}, "properties": {"id": "det3251", "length_m": 105.2, "osm_match_frac": 0.0, "status": "unmapped_candidate", "centroid": [46.61178, 41.21114]}}, {"type": "Feature", "geometry": {"type": "LineString", "coordinates": [[46.65240168571473, 41.273105608774785], [46.65154337882996, 41.27315398983276], [46.65117859840394, 41.27304110064169]]}, "properties": {"id": "det749", "length_m": 105.1, "osm_match_frac": 0.0, "status": "unmapped_candidate", "centroid": [46.65178, 41.27312]}}, {"type": "Feature", "geometry": {"type": "LineString", "coordinates": [[46.669975519180305, 41.24592591553489], [46.67006134986878, 41.245667775216255], [46.66988968849183, 41.24555483850617], [46.669739484786994, 41.24553870467451], [46.66931033134461, 41.24574844417538]]}, "properties": {"id": "det1984", "length_m": 104.2, "osm_match_frac": 0.0, "status": "unmapped_candidate", "centroid": [46.66977, 41.24566]}}]}